NORAD_CAT_ID,OBJECT_NAME,OBJECT_TYPE,EPOCH,MEAN_MOTION,ECCENTRICITY,INCLINATION,RA_OF_ASC_NODE,ARG_OF_PERICENTER,MEAN_ANOMALY,BSTAR,MEAN_MOTION_DOT,MEAN_MOTION_DDOT,TLE_LINE0,TLE_LINE1,TLE_LINE2,SEMIMAJOR_AXIS,PERIOD,APOGEE,PERIGEE,DECAYED
54803.0,STARLINK-5430,PAYLOAD,2023-11-07 02:53:48,15.08835278,0.0001579,53.2174,275.6053,135.3742,224.7378,-0.00013962,-2.509e-05,0.0,0 STARLINK-5430,1 54803U 22175AX  23311.12069798 -.00002509  00000-0 -13962-3 0  9991,2 54803  53.2174 275.6053 0001579 135.3742 224.7378 15.08835278 48900,6917.895,95.438,540.852,538.667,0.0
54803.0,STARLINK-5430,PAYLOAD,2023-11-07 04:29:11,15.08823319,0.0001238,53.2157,275.3048,105.1798,254.9331,-0.00040855,-6.781e-05,0.0,0 STARLINK-5430,1 54803U 22175AX  23311.18694148 -.00006781  00000-0 -40855-3 0  9997,2 54803  53.2157 275.3048 0001238 105.1798 254.9331 15.08823319 48918,6917.931,95.439,540.653,538.94,0.0
54803.0,STARLINK-5430,PAYLOAD,2023-11-08 02:44:36,15.08829552,0.0001219,53.2169,271.1427,73.6423,286.4703,0.00015432,2.168e-05,0.0,0 STARLINK-5430,1 54803U 22175AX  23312.11430867  .00002168  00000-0  15432-3 0  9993,2 54803  53.2169 271.1427 0001219  73.6423 286.4703 15.08829552 49053,6917.912,95.438,540.621,538.934,0.0
54803.0,STARLINK-5430,PAYLOAD,2023-11-08 07:30:45,15.08840084,0.0001196,53.2169,270.2499,100.1977,259.915,0.00076905,0.00011973,0.0,0 STARLINK-5430,1 54803U 22175AX  23312.31302941  .00011973  00000-0  76905-3 0  9992,2 54803  53.2169 270.2499 0001196 100.1977 259.9150 15.08840084 51244,6917.88,95.438,540.573,538.918,0.0
54803.0,STARLINK-5430,PAYLOAD,2023-11-09 04:10:45,15.08862777,0.0001018,53.2168,266.3867,109.1769,250.9333,0.00085254,0.00013315,0.0,0 STARLINK-5430,1 54803U 22175AX  23313.17414338  .00013315  00000-0  85254-3 0  9990,2 54803  53.2168 266.3867 0001018 109.1769 250.9333 15.08862777 51370,6917.811,95.436,540.38,538.972,0.0
54803.0,STARLINK-5430,PAYLOAD,2023-11-10 04:01:33,15.08844102,0.0001136,53.2164,261.9262,98.6877,261.4244,5.0803e-05,5.21e-06,0.0,0 STARLINK-5430,1 54803U 22175AX  23314.16774384  .00000521  00000-0  50803-4 0  9998,2 54803  53.2164 261.9262 0001136  98.6877 261.4244 15.08844102 49365,6917.868,95.437,540.519,538.947,0.0
54803.0,STARLINK-5430,PAYLOAD,2023-11-10 13:33:52,15.08839784,0.0001338,53.2169,260.1414,85.1255,274.989,-2.0891e-05,-6.2e-06,0.0,0 STARLINK-5430,1 54803U 22175AX  23314.56518532 -.00000620  00000-0 -20891-4 0  9999,2 54803  53.2169 260.1414 0001338  85.1255 274.9890 15.08839784 51588,6917.881,95.438,540.672,538.82,0.0
54803.0,STARLINK-5430,PAYLOAD,2023-11-11 03:52:20,15.08839866,0.0001165,53.2166,257.4665,89.9351,270.1775,-0.00010317,-1.929e-05,0.0,0 STARLINK-5430,1 54803U 22175AX  23315.16134753 -.00001929  00000-0 -10317-3 0  9999,2 54803  53.2166 257.4665 0001165  89.9351 270.1775 15.08839866 49510,6917.881,95.438,540.552,538.94,0.0
54803.0,STARLINK-5430,PAYLOAD,2023-11-11 13:24:39,15.08841902,0.0001118,53.2162,255.6835,95.1925,264.9195,7.6883e-05,9.36e-06,0.0,0 STARLINK-5430,1 54803U 22175AX  23315.55878901  .00000936  00000-0  76883-4 0  9998,2 54803  53.2162 255.6835 0001118  95.1925 264.9195 15.08841902 51737,6917.875,95.437,540.513,538.966,0.0
54803.0,STARLINK-5430,PAYLOAD,2023-11-12 05:18:30,15.08849286,0.0001291,53.2162,252.7081,93.1923,266.9217,0.0003613,5.468e-05,0.0,0 STARLINK-5430,1 54803U 22175AX  23316.22118940  .00005468  00000-0  36130-3 0  9998,2 54803  53.2162 252.7081 0001291  93.1923 266.9217 15.08849286 49676,6917.852,95.437,540.61,538.824,0.0
54803.0,STARLINK-5430,PAYLOAD,2023-11-12 13:15:26,15.08841974,0.0001469,53.2163,251.221,88.5301,271.5859,0.00020454,2.969e-05,0.0,0 STARLINK-5430,1 54803U 22175AX  23316.55239344  .00002969  00000-0  20454-3 0  9991,2 54803  53.2163 251.2210 0001469  88.5301 271.5859 15.08841974 51886,6917.874,95.437,540.756,538.723,0.0
54803.0,STARLINK-5430,PAYLOAD,2023-11-13 05:09:17,15.08851785,0.0001599,53.2173,248.2451,93.2106,266.9069,0.00033306,5.018e-05,0.0,0 STARLINK-5430,1 54803U 22175AX  23317.21478958  .00005018  00000-0  33306-3 0  9999,2 54803  53.2173 248.2451 0001599  93.2106 266.9069 15.08851785 51983,6917.844,95.437,540.816,538.603,0.0
54803.0,STARLINK-5430,PAYLOAD,2023-11-13 13:06:13,15.08845964,0.0001116,53.2163,246.7594,110.5911,249.5201,0.00018519,2.661e-05,0.0,0 STARLINK-5430,1 54803U 22175AX  23317.54598921  .00002661  00000-0  18519-3 0  9998,2 54803  53.2163 246.7594 0001116 110.5911 249.5201 15.08845964 52039,6917.862,95.437,540.499,538.955,0.0
54803.0,STARLINK-5430,PAYLOAD,2023-11-14 01:49:18,15.08847591,0.0001505,53.2177,244.3817,99.7518,260.3644,0.00020452,2.969e-05,0.0,0 STARLINK-5430,1 54803U 22175AX  23318.07590976  .00002969  00000-0  20452-3 0  9999,2 54803  53.2177 244.3817 0001505  99.7518 260.3644 15.08847591 49956,6917.857,95.437,540.763,538.681,0.0
54803.0,STARLINK-5430,PAYLOAD,2023-11-14 05:00:04,15.08849775,0.0001594,53.2178,243.7854,109.4934,250.623,0.0002538,3.755e-05,0.0,0 STARLINK-5430,1 54803U 22175AX  23318.20838785  .00003755  00000-0  25380-3 0  9996,2 54803  53.2178 243.7854 0001594 109.4934 250.6230 15.08849775 52133,6917.851,95.437,540.818,538.613,0.0
54803.0,STARLINK-5430,PAYLOAD,2023-11-15 01:40:06,15.08806745,0.0001603,53.2173,239.9202,82.0399,278.0775,-0.00068348,-0.00011139,0.0,0 STARLINK-5430,1 54803U 22175AX  23319.06952165 -.00011139  00000-0 -68348-3 0  9998,2 54803  53.2173 239.9202 0001603  82.0399 278.0775 15.08806745 50107,6917.982,95.44,540.956,538.738,0.0
54803.0,STARLINK-5430,PAYLOAD,2023-11-15 19:09:20,15.08839208,0.0001836,53.2174,236.648,134.6578,225.4564,9.7254e-05,1.26e-05,0.0,0 STARLINK-5430,1 54803U 22175AX  23319.79815271  .00001260  00000-0  97254-4 0  9995,2 54803  53.2174 236.6480 0001836 134.6578 225.4564 15.08839208 50215,6917.883,95.438,541.018,538.478,0.0
54803.0,STARLINK-5430,PAYLOAD,2023-11-16 04:41:38,15.08851787,0.0001384,53.2163,234.8671,90.5533,269.5618,0.00019752,2.858e-05,0.0,0 STARLINK-5430,1 54803U 22175AX  23320.19558776  .00002858  00000-0  19752-3 0  9995,2 54803  53.2163 234.8671 0001384  90.5533 269.5618 15.08851787 50275,6917.844,95.437,540.667,538.752,0.0
54803.0,STARLINK-5430,PAYLOAD,2023-11-16 19:00:08,15.08833326,0.0001761,53.2169,232.1894,87.6693,272.4501,0.0004276,6.523e-05,0.0,0 STARLINK-5430,1 54803U 22175AX  23320.79176233  .00006523  00000-0  42760-3 0  9993,2 54803  53.2169 232.1894 0001761  87.6693 272.4501 15.08833326 50365,6917.901,95.438,540.984,538.548,0.0
54803.0,STARLINK-5430,PAYLOAD,2023-11-17 10:53:59,15.08832118,0.000165,53.2169,229.2151,82.1328,277.9852,0.00027509,4.092e-05,0.0,0 STARLINK-5430,1 54803U 22175AX  23321.45416494  .00004092  00000-0  27509-3 0  9996,2 54803  53.2169 229.2151 0001650  82.1328 277.9852 15.08832118 52628,6917.904,95.438,540.911,538.628,0.0
54803.0,STARLINK-5430,PAYLOAD,2023-11-18 02:47:50,15.08840127,0.0001535,53.2171,226.2415,86.1584,273.9584,1.571e-05,-3.8e-07,0.0,0 STARLINK-5430,1 54803U 22175AX  23322.11655784 -.00000038  00000-0  15710-4 0  9996,2 54803  53.2171 226.2415 0001535  86.1584 273.9584 15.08840127 50569,6917.88,95.438,540.807,538.683,0.0
54803.0,STARLINK-5430,PAYLOAD,2023-11-18 10:44:46,15.08835419,0.0001645,53.2173,224.7549,85.0945,275.0235,0.00023998,3.533e-05,0.0,0 STARLINK-5430,1 54803U 22175AX  23322.44776193  .00003533  00000-0  23998-3 0  9998,2 54803  53.2173 224.7549 0001645  85.0945 275.0235 15.08835419 52772,6917.894,95.438,540.897,538.621,0.0
54803.0,STARLINK-5430,PAYLOAD,2023-11-19 10:35:33,15.08843928,0.0001519,53.2176,220.2974,85.8121,274.3044,0.00015832,2.233e-05,0.0,0 STARLINK-5430,1 54803U 22175AX  23323.44135886  .00002233  00000-0  15832-3 0  9991,2 54803  53.2176 220.2974 0001519  85.8121 274.3044 15.08843928 50763,6917.868,95.437,540.784,538.683,0.0
54803.0,STARLINK-5430,PAYLOAD,2023-11-19 21:43:15,15.08845185,0.0001523,53.2175,218.2159,86.0502,274.0665,0.00014294,1.988e-05,0.0,0 STARLINK-5430,1 54803U 22175AX  23323.90503673  .00001988  00000-0  14294-3 0  9992,2 54803  53.2175 218.2159 0001523  86.0502 274.0665 15.08845185 52995,6917.865,95.437,540.783,538.676,0.0
54803.0,STARLINK-5430,PAYLOAD,2023-11-20 10:26:20,15.08843718,0.0001594,53.2166,215.8372,78.7329,281.3842,8.8843e-05,1.126e-05,0.0,0 STARLINK-5430,1 54803U 22175AX  23324.43495709  .00001126  00000-0  88843-4 0  9997,2 54803  53.2166 215.8372 0001594  78.7329 281.3842 15.08843718 53076,6917.869,95.437,540.837,538.631,0.0
54803.0,STARLINK-5430,PAYLOAD,2023-11-20 21:34:02,15.08840453,0.0001696,53.2166,213.7553,81.5169,278.6015,7.6722e-05,9.33e-06,0.0,0 STARLINK-5430,1 54803U 22175AX  23324.89863925  .00000933  00000-0  76722-4 0  9994,2 54803  53.2166 213.7553 0001696  81.5169 278.6015 15.08840453 53143,6917.879,95.438,540.917,538.571,0.0
54803.0,STARLINK-5430,PAYLOAD,2023-11-21 02:20:11,15.08843685,0.0001545,53.2165,212.8606,91.3564,268.7605,9.869e-05,1.283e-05,0.0,0 STARLINK-5430,1 54803U 22175AX  23325.09735653  .00001283  00000-0  98690-4 0  9990,2 54803  53.2165 212.8606 0001545  91.3564 268.7605 15.08843685 51011,6917.869,95.437,540.803,538.665,0.0
54803.0,STARLINK-5430,PAYLOAD,2023-11-21 10:17:07,15.08842137,0.0001633,53.2168,211.374,89.2385,270.8794,7.9485e-05,9.77e-06,0.0,0 STARLINK-5430,1 54803U 22175AX  23325.42855809  .00000977  00000-0  79485-4 0  9993,2 54803  53.2168 211.3740 0001633  89.2385 270.8794 15.08842137 53221,6917.874,95.437,540.869,538.609,0.0
54803.0,STARLINK-5430,PAYLOAD,2023-11-21 21:24:49,15.08844864,0.0001627,53.2168,209.292,92.075,268.0429,0.00010266,1.346e-05,0.0,0 STARLINK-5430,1 54803U 22175AX  23325.89223697  .00001346  00000-0  10266-3 0  9990,2 54803  53.2168 209.2920 0001627  92.0750 268.0429 15.08844864 53298,6917.866,95.437,540.856,538.605,0.0
54803.0,STARLINK-5430,PAYLOAD,2023-11-22 02:10:58,15.08849634,0.0001665,53.217,208.399,96.1041,264.0141,0.00010402,1.368e-05,0.0,0 STARLINK-5430,1 54803U 22175AX  23326.09095396  .00001368  00000-0  10402-3 0  9992,2 54803  53.2170 208.3990 0001665  96.1041 264.0141 15.08849634 53329,6917.851,95.437,540.868,538.564,0.0
